CCSDS_OMM_VERS = 2.0
CREATION_DATE  = 
ORIGINATOR     = 

OBJECT_NAME    = AQUA
OBJECT_ID      = 2002-022A
CENTER_NAME    = EARTH
REF_FRAME      = TEME
TIME_SYSTEM    = UTC
MEAN_ELEMENT_THEORY = SGP/SGP4

EPOCH          = 2026-03-11T04:32:37.159008
MEAN_MOTION    = 14.61981074
ECCENTRICITY   = .0000561
INCLINATION    = 98.4177
RA_OF_ASC_NODE = 37.5815
ARG_OF_PERICENTER = 86.3395
MEAN_ANOMALY   = 329.8412

EPHEMERIS_TYPE = 0
CLASSIFICATION_TYPE = U
NORAD_CAT_ID   = 27424
ELEMENT_SET_NO = 999
REV_AT_EPOCH   = 26895
BSTAR          = .26618E-3
MEAN_MOTION_DOT = .1285E-4
MEAN_MOTION_DDOT = 0

CCSDS_OMM_VERS = 2.0
CREATION_DATE  = 
ORIGINATOR     = 

OBJECT_NAME    = CZ-4B R/B
OBJECT_ID      = 2002-024C
CENTER_NAME    = EARTH
REF_FRAME      = TEME
TIME_SYSTEM    = UTC
MEAN_ELEMENT_THEORY = SGP/SGP4

EPOCH          = 2026-03-11T03:02:32.368128
MEAN_MOTION    = 14.14547798
ECCENTRICITY   = .0050408
INCLINATION    = 98.8836
RA_OF_ASC_NODE = 123.5263
ARG_OF_PERICENTER = 20.1321
MEAN_ANOMALY   = 5.9283

EPHEMERIS_TYPE = 0
CLASSIFICATION_TYPE = U
NORAD_CAT_ID   = 27432
ELEMENT_SET_NO = 999
REV_AT_EPOCH   = 22944
BSTAR          = .42611E-4
MEAN_MOTION_DOT = .38E-6
MEAN_MOTION_DDOT = 0

CCSDS_OMM_VERS = 2.0
CREATION_DATE  = 
ORIGINATOR     = 

OBJECT_NAME    = MIDORI II (ADEOS-II)
OBJECT_ID      = 2002-056A
CENTER_NAME    = EARTH
REF_FRAME      = TEME
TIME_SYSTEM    = UTC
MEAN_ELEMENT_THEORY = SGP/SGP4

EPOCH          = 2026-03-10T20:29:26.369952
MEAN_MOTION    = 14.29286173
ECCENTRICITY   = .00015373
INCLINATION    = 98.7768
RA_OF_ASC_NODE = 28.3393
ARG_OF_PERICENTER = 40.8915
MEAN_ANOMALY   = 319.2382

EPHEMERIS_TYPE = 0
CLASSIFICATION_TYPE = U
NORAD_CAT_ID   = 27597
ELEMENT_SET_NO = 999
REV_AT_EPOCH   = 21046
BSTAR          = .17141274E-3
MEAN_MOTION_DOT = .391E-5
MEAN_MOTION_DDOT = 0

CCSDS_OMM_VERS = 2.0
CREATION_DATE  = 
ORIGINATOR     = 

OBJECT_NAME    = H-2A R/B
OBJECT_ID      = 2002-056E
CENTER_NAME    = EARTH
REF_FRAME      = TEME
TIME_SYSTEM    = UTC
MEAN_ELEMENT_THEORY = SGP/SGP4

EPOCH          = 2026-03-11T03:54:55.625184
MEAN_MOTION    = 14.33761769
ECCENTRICITY   = .007059
INCLINATION    = 98.3204
RA_OF_ASC_NODE = 30.4726
ARG_OF_PERICENTER = 156.3102
MEAN_ANOMALY   = 214.7130

EPHEMERIS_TYPE = 0
CLASSIFICATION_TYPE = U
NORAD_CAT_ID   = 27601
ELEMENT_SET_NO = 999
REV_AT_EPOCH   = 21432
BSTAR          = .12619E-3
MEAN_MOTION_DOT = .319E-5
MEAN_MOTION_DDOT = 0

CCSDS_OMM_VERS = 2.0
CREATION_DATE  = 
ORIGINATOR     = 

OBJECT_NAME    = CZ-4B R/B
OBJECT_ID      = 2003-049C
CENTER_NAME    = EARTH
REF_FRAME      = TEME
TIME_SYSTEM    = UTC
MEAN_ELEMENT_THEORY = SGP/SGP4

EPOCH          = 2026-03-10T23:09:51.595200
MEAN_MOTION    = 14.55021465
ECCENTRICITY   = .0047322
INCLINATION    = 98.6879
RA_OF_ASC_NODE = 64.9200
ARG_OF_PERICENTER = 226.9391
MEAN_ANOMALY   = 132.7839

EPHEMERIS_TYPE = 0
CLASSIFICATION_TYPE = U
NORAD_CAT_ID   = 28059
ELEMENT_SET_NO = 999
REV_AT_EPOCH   = 18678
BSTAR          = .11663E-3
MEAN_MOTION_DOT = .458E-5
MEAN_MOTION_DDOT = 0

CCSDS_OMM_VERS = 2.0
CREATION_DATE  = 
ORIGINATOR     = 

OBJECT_NAME    = CZ-2C R/B
OBJECT_ID      = 2004-012C
CENTER_NAME    = EARTH
REF_FRAME      = TEME
TIME_SYSTEM    = UTC
MEAN_ELEMENT_THEORY = SGP/SGP4

EPOCH          = 2026-03-11T03:27:29.768256
MEAN_MOTION    = 15.64701440
ECCENTRICITY   = .0012876
INCLINATION    = 97.7220
RA_OF_ASC_NODE = 135.5740
ARG_OF_PERICENTER = 303.5427
MEAN_ANOMALY   = 56.4601

EPHEMERIS_TYPE = 0
CLASSIFICATION_TYPE = U
NORAD_CAT_ID   = 28222
ELEMENT_SET_NO = 999
REV_AT_EPOCH   = 20450
BSTAR          = .6407E-3
MEAN_MOTION_DOT = .62581E-3
MEAN_MOTION_DDOT = 0

CCSDS_OMM_VERS = 2.0
CREATION_DATE  = 
ORIGINATOR     = 

OBJECT_NAME    = SL-16 R/B
OBJECT_ID      = 2004-021B
CENTER_NAME    = EARTH
REF_FRAME      = TEME
TIME_SYSTEM    = UTC
MEAN_ELEMENT_THEORY = SGP/SGP4

EPOCH          = 2026-03-10T20:54:36.936576
MEAN_MOTION    = 14.14597524
ECCENTRICITY   = .0004123
INCLINATION    = 70.9996
RA_OF_ASC_NODE = 230.0127
ARG_OF_PERICENTER = 7.5173
MEAN_ANOMALY   = 352.6010

EPHEMERIS_TYPE = 0
CLASSIFICATION_TYPE = U
NORAD_CAT_ID   = 28353
ELEMENT_SET_NO = 999
REV_AT_EPOCH   = 12300
BSTAR          = -.10787E-3
MEAN_MOTION_DOT = -.255E-5
MEAN_MOTION_DDOT = 0

CCSDS_OMM_VERS = 2.0
CREATION_DATE  = 
ORIGINATOR     = 

OBJECT_NAME    = CZ-4B R/B
OBJECT_ID      = 2004-035C
CENTER_NAME    = EARTH
REF_FRAME      = TEME
TIME_SYSTEM    = UTC
MEAN_ELEMENT_THEORY = SGP/SGP4

EPOCH          = 2026-03-11T02:05:30.623136
MEAN_MOTION    = 15.29092863
ECCENTRICITY   = .0030769
INCLINATION    = 97.3502
RA_OF_ASC_NODE = 104.3128
ARG_OF_PERICENTER = 326.3773
MEAN_ANOMALY   = 33.5514

EPHEMERIS_TYPE = 0
CLASSIFICATION_TYPE = U
NORAD_CAT_ID   = 28415
ELEMENT_SET_NO = 999
REV_AT_EPOCH   = 18012
BSTAR          = .32998E-3
MEAN_MOTION_DOT = .9377E-4
MEAN_MOTION_DDOT = 0

CCSDS_OMM_VERS = 2.0
CREATION_DATE  = 
ORIGINATOR     = 

OBJECT_NAME    = CZ-2C R/B
OBJECT_ID      = 2004-046B
CENTER_NAME    = EARTH
REF_FRAME      = TEME
TIME_SYSTEM    = UTC
MEAN_ELEMENT_THEORY = SGP/SGP4

EPOCH          = 2026-03-11T00:40:35.378400
MEAN_MOTION    = 14.26992479
ECCENTRICITY   = .0139933
INCLINATION    = 98.1981
RA_OF_ASC_NODE = 344.9289
ARG_OF_PERICENTER = 150.5053
MEAN_ANOMALY   = 210.4117

EPHEMERIS_TYPE = 0
CLASSIFICATION_TYPE = U
NORAD_CAT_ID   = 28480
ELEMENT_SET_NO = 999
REV_AT_EPOCH   = 10869
BSTAR          = .63793E-4
MEAN_MOTION_DOT = .132E-5
MEAN_MOTION_DDOT = 0

CCSDS_OMM_VERS = 2.0
CREATION_DATE  = 
ORIGINATOR     = 

OBJECT_NAME    = ARIANE 5 R/B
OBJECT_ID      = 2004-049H
CENTER_NAME    = EARTH
REF_FRAME      = TEME
TIME_SYSTEM    = UTC
MEAN_ELEMENT_THEORY = SGP/SGP4

EPOCH          = 2026-03-11T04:22:16.057056
MEAN_MOTION    = 14.85268917
ECCENTRICITY   = .0083831
INCLINATION    = 98.2629
RA_OF_ASC_NODE = 238.6950
ARG_OF_PERICENTER = 347.0668
MEAN_ANOMALY   = 12.8394

EPHEMERIS_TYPE = 0
CLASSIFICATION_TYPE = U
NORAD_CAT_ID   = 28499
ELEMENT_SET_NO = 999
REV_AT_EPOCH   = 14601
BSTAR          = .11007E-3
MEAN_MOTION_DOT = .941E-5
MEAN_MOTION_DDOT = 0

CCSDS_OMM_VERS = 2.0
CREATION_DATE  = 
ORIGINATOR     = 

OBJECT_NAME    = CZ-2D R/B
OBJECT_ID      = 2005-024B
CENTER_NAME    = EARTH
REF_FRAME      = TEME
TIME_SYSTEM    = UTC
MEAN_ELEMENT_THEORY = SGP/SGP4

EPOCH          = 2026-03-10T23:48:38.556288
MEAN_MOTION    = 15.60281645
ECCENTRICITY   = .0005616
INCLINATION    = 97.3603
RA_OF_ASC_NODE = 85.1858
ARG_OF_PERICENTER = 43.4109
MEAN_ANOMALY   = 316.7589

EPHEMERIS_TYPE = 0
CLASSIFICATION_TYPE = U
NORAD_CAT_ID   = 28738
ELEMENT_SET_NO = 999
REV_AT_EPOCH   = 13998
BSTAR          = .59443E-3
MEAN_MOTION_DOT = .48661E-3
MEAN_MOTION_DDOT = 0

CCSDS_OMM_VERS = 2.0
CREATION_DATE  = 
ORIGINATOR     = 

OBJECT_NAME    = ALOS (DAICHI)
OBJECT_ID      = 2006-002A
CENTER_NAME    = EARTH
REF_FRAME      = TEME
TIME_SYSTEM    = UTC
MEAN_ELEMENT_THEORY = SGP/SGP4

EPOCH          = 2026-03-11T03:16:57.456768
MEAN_MOTION    = 14.69815485
ECCENTRICITY   = .0000857
INCLINATION    = 98.1220
RA_OF_ASC_NODE = 26.0849
ARG_OF_PERICENTER = 57.9217
MEAN_ANOMALY   = 302.2072

EPHEMERIS_TYPE = 0
CLASSIFICATION_TYPE = U
NORAD_CAT_ID   = 28931
ELEMENT_SET_NO = 999
REV_AT_EPOCH   = 7369
BSTAR          = .29503E-3
MEAN_MOTION_DOT = .1712E-4
MEAN_MOTION_DDOT = 0

