AQUA                    
1 27424U 02022A   26070.18931897  .00001285  00000+0  26618-3 0  9997
2 27424  98.4177  37.5815 0000561  86.3395 329.8412 14.61981074268952
CZ-4B R/B               
1 27432U 02024C   26070.12676352  .00000038  00000+0  42611-4 0  9991
2 27432  98.8836 123.5263 0050408  20.1321   5.9283 14.14547798229448
MIDORI II (ADEOS-II)    
1 27597U 02056A   26069.85377743  .00000391  00000+0  17141-3 0  9999
2 27597  98.7768  28.3393 0001537  40.8915 319.2382 14.29286173210462
H-2A R/B                
1 27601U 02056E   26070.16314381  .00000319  00000+0  12619-3 0  9995
2 27601  98.3204  30.4726 0070590 156.3102 214.7130 14.33761769214322
CZ-4B R/B               
1 28059U 03049C   26069.96518050  .00000458  00000+0  11663-3 0  9993
2 28059  98.6879  64.9200 0047322 226.9391 132.7839 14.55021465186780
CZ-2C R/B               
1 28222U 04012C   26070.14409454  .00062581  00000+0  64070-3 0  9990
2 28222  97.7220 135.5740 0012876 303.5427  56.4601 15.64701440204503
SL-16 R/B               
1 28353U 04021B   26069.87126084 -.00000255  00000+0 -10787-3 0  9996
2 28353  70.9996 230.0127 0004123   7.5173 352.6010 14.14597524123006
CZ-4B R/B               
1 28415U 04035C   26070.08715999  .00009377  00000+0  32998-3 0  9994
2 28415  97.3502 104.3128 0030769 326.3773  33.5514 15.29092863180121
CZ-2C R/B               
1 28480U 04046B   26070.02818725  .00000132  00000+0  63793-4 0  9991
2 28480  98.1981 344.9289 0139933 150.5053 210.4117 14.26992479108699
ARIANE 5 R/B            
1 28499U 04049H   26070.18213029  .00000941  00000+0  11007-3 0  9995
2 28499  98.2629 238.6950 0083831 347.0668  12.8394 14.85268917146010
CZ-2D R/B               
1 28738U 05024B   26069.99211292  .00048661  00000+0  59443-3 0  9999
2 28738  97.3603  85.1858 0005616  43.4109 316.7589 15.60281645139989
ALOS (DAICHI)           
1 28931U 06002A   26070.13677612  .00001712  00000+0  29503-3 0  9991
2 28931  98.1220  26.0849 0000857  57.9217 302.2072 14.69815485 73699
